ONEWEB-0403             
1 50483U 21132Q   24147.48420844 -.00003508  00000+0 -89316-2 0  9997
2 50483  87.9124 125.0999 0001388  94.4602 265.6689 13.18704398122521
ONEWEB-0404             
1 50484U 21132R   24147.57943260 -.00000018  00000+0 -86435-4 0  9994
2 50484  87.8976 170.5991 0001302  95.0676 265.0601 13.11421828117188
ONEWEB-0405             
1 50485U 21132S   24147.42413378 -.00000088  00000+0 -25621-3 0  9997
2 50485  87.9125 125.1009 0001869 103.4455 256.6885 13.18688542122911
ONEWEB-0406             
1 50486U 21132T   24147.86831871 -.00004255  00000+0 -10827-1 0  9998
2 50486  87.9128 125.0239 0001735  70.9384 289.1936 13.18709203123894
ONEWEB-0407             
1 50487U 21132U   24147.86201057  .00000030  00000+0  43321-4 0  9999
2 50487  87.9120 125.0280 0001934  90.0982 270.0372 13.18687711123837
ONEWEB-0409             
1 50488U 21132V   24147.80662614 -.00001065  00000+0 -30422-2 0  9991
2 50488  87.8963 170.5536 0001948  74.1321 286.0022 13.11412082118389
ONEWEB-0412             
1 50489U 21132W   24147.47155543 -.00000013  00000+0 -65469-4 0  9996
2 50489  87.9129 125.1042 0001907 101.4206 258.7140 13.18683485122582
ONEWEB-0413             
1 50490U 21132X   24147.47629055 -.00006228  00000+0 -15833-1 0  9993
2 50490  87.9127 125.1164 0001833 126.0816 234.0486 13.18714969122521
